<?xml version="1.0" encoding="UTF-8"?>
<kml xmlns="http://www.opengis.net/kml/2.2">
<Document>
  <name>Día 4 · Lun 10 — Historia Natural, Tribeca, SoHo y Greenwich</name>
  <Style id="day4pin">
    <IconStyle>
      <color>ff2a50b5</color>
      <scale>1.1</scale>
      <Icon><href>http://maps.google.com/mapfiles/kml/paddle/4.png</href></Icon>
    </IconStyle>
  </Style>
    <Placemark>
      <name>~08:00 · Desayuno: Levain Bakery (UWS)</name>
      <description><![CDATA[Abre a las 8:00, de camino al museo — sin desvío.<br/><a href="https://www.google.com/maps/place/?q=place_id:ChIJ6SmehIlYwokRaO14xlmbWZU">Ver ficha / más info</a>]]></description>
      <styleUrl>#day4pin</styleUrl>
      <Point><coordinates>-73.980298,40.779959,0</coordinates></Point>
    </Placemark>
    <Placemark>
      <name>09:00 · Museo de Historia Natural</name>
      <description><![CDATA[Cómo llegar desde la parada anterior: 🚶 3 min<br/><a href="https://www.google.com/maps/search/?api=1&amp;query=American%20Museum%20of%20Natural%20History">Ver ficha / más info</a>]]></description>
      <styleUrl>#day4pin</styleUrl>
      <Point><coordinates>-73.974,40.7813,0</coordinates></Point>
    </Placemark>
    <Placemark>
      <name>12:10 · Metro hacia Tribeca</name>
      <description><![CDATA[Cómo llegar desde la parada anterior: 🚇 línea C]]></description>
      <styleUrl>#day4pin</styleUrl>
      <Point><coordinates>-74.006,40.72,0</coordinates></Point>
    </Placemark>
    <Placemark>
      <name>13:00 · Bubby's Tribeca + fotomatón</name>
      <description><![CDATA[Cómo llegar desde la parada anterior: 🚶 6 min<br/>120 Hudson St. Revelado analógico, tarda unos minutos.<br/><a href="https://www.bubbys.com/">Ver ficha / más info</a>]]></description>
      <styleUrl>#day4pin</styleUrl>
      <Point><coordinates>-74.0093,40.7186,0</coordinates></Point>
    </Placemark>
    <Placemark>
      <name>13:45 · Café: Rigor Hill Market</name>
      <description><![CDATA[Cómo llegar desde la parada anterior: 🚶 5 min<br/>227 W Broadway — literalmente de camino a SoHo.<br/><a href="https://www.google.com/maps/place/?q=place_id:ChIJm0F0fiFZwokRfuBjDeS7w7U">Ver ficha / más info</a>]]></description>
      <styleUrl>#day4pin</styleUrl>
      <Point><coordinates>-74.005995,40.719225,0</coordinates></Point>
    </Placemark>
    <Placemark>
      <name>14:15 · SoHo y compras</name>
      <description><![CDATA[Cómo llegar desde la parada anterior: 🚶 10 min<br/><a href="https://www.google.com/maps/search/?api=1&amp;query=SoHo%20New%20York%20shopping">Ver ficha / más info</a>]]></description>
      <styleUrl>#day4pin</styleUrl>
      <Point><coordinates>-74.003,40.7233,0</coordinates></Point>
    </Placemark>
    <Placemark>
      <name>17:15 · A Shop of Things</name>
      <description><![CDATA[Cómo llegar desde la parada anterior: 🚶 15 min<br/>30 Orchard St, regalos y objetos originales.<br/><a href="https://ashopofthings.com/pages/asot-irl">Ver ficha / más info</a>]]></description>
      <styleUrl>#day4pin</styleUrl>
      <Point><coordinates>-73.9908,40.7183,0</coordinates></Point>
    </Placemark>
    <Placemark>
      <name>17:45 · Washington Square Park</name>
      <description><![CDATA[Cómo llegar desde la parada anterior: 🚶 6 min<br/><a href="https://www.google.com/maps/search/?api=1&amp;query=Washington%20Square%20Park">Ver ficha / más info</a>]]></description>
      <styleUrl>#day4pin</styleUrl>
      <Point><coordinates>-73.9973,40.7308,0</coordinates></Point>
    </Placemark>
    <Placemark>
      <name>18:30 · Cóctel: The Up &amp; Up</name>
      <description><![CDATA[Cómo llegar desde la parada anterior: 🚶 3 min<br/>~16–18$ el cóctel, sin entrada, ambiente cuidado.<br/><a href="https://www.google.com/maps/place/?q=place_id:ChIJN0f2iJFZwokRt53h0ISm3eE">Ver ficha / más info</a>]]></description>
      <styleUrl>#day4pin</styleUrl>
      <Point><coordinates>-74.000488,40.7297,0</coordinates></Point>
    </Placemark>
    <Placemark>
      <name>19:15 · Cena: Joe's Pizza</name>
      <description><![CDATA[Cómo llegar desde la parada anterior: 🚶 5 min<br/>7 Carmine St, porciones clásicas para compartir.<br/><a href="https://www.joespizzanyc.com/locations2">Ver ficha / más info</a>]]></description>
      <styleUrl>#day4pin</styleUrl>
      <Point><coordinates>-74.0021,40.7306,0</coordinates></Point>
    </Placemark>
    <Placemark>
      <name>20:15 · Regreso al hotel</name>
      <description><![CDATA[Cómo llegar desde la parada anterior: 🚇 A/C/E]]></description>
      <styleUrl>#day4pin</styleUrl>
      <Point><coordinates>-74.0021,40.759,0</coordinates></Point>
    </Placemark>
</Document>
</kml>